GLOBAL-2                
1 43812U 18099BG  26197.05747908  .00001654  00000+0  10891-3 0  9997
2 43812  97.3548 232.3704 0007347  64.6460 295.5529 15.08828463416265
GLOBAL-4                
1 44499U 19054E   26196.91432981  .00038121  00000+0  34942-3 0  9999
2 44499  45.0056  70.3001 0005516 201.4444 158.6224 15.67138233384865
GLOBAL-9                
1 47971U 21023G   26196.98562172  .00011981  00000+0  23364-3 0  9990
2 47971  44.9815  88.5298 0003514 174.7695 185.3233 15.47630681299403
GLOBAL-14               
1 49469U 21106A   26197.18698474  .00015623  00000+0  25729-3 0  9998
2 49469  42.0038 118.5597 0017963 230.6390 129.2864 15.51859357262636
GLOBAL-12               
1 49772U 21115BA  26197.19797538  .00017441  00000+0  25853-3 0  9995
2 49772  53.1940 264.8579 0002899  73.2085 286.9245 15.55369753260415
GLOBAL-13               
1 49773U 21115BB  26196.81159714  .00011490  00000+0  23110-3 0  9994
2 49773  53.1971 278.4021 0000519 153.6810 206.4225 15.47126438260191
GLOBAL-17               
1 49949U 21120A   26197.15640055  .00014509  00000+0  22429-3 0  9992
2 49949  41.9928 236.4729 0013360  98.3601 261.8759 15.53746591259407
GLOBAL-16               
1 49950U 21120B   26197.14586058  .00014892  00000+0  24954-3 0  9995
2 49950  41.9931 240.8283 0011504  87.3043 272.9118 15.51511020259343
GLOBAL-18               
1 52196U 22034B   26197.07243782  .00013478  00000+0  26839-3 0  9995
2 52196  52.9819 118.4843 0004499  27.9075 332.2171 15.47244701241432
GLOBAL-19               
1 55982U 23041B   26196.92450295  .00007625  00000+0  20145-3 0  9993
2 55982  42.0023  34.2193 0009785 222.9817 137.0259 15.38694225186359
GLOBAL-5                
1 55983U 23041C   26197.02207970  .00008246  00000+0  21722-3 0  9998
2 55983  42.0015  33.1751 0008656 218.8802 141.1416 15.38709009186373
